EUTELSAT QUANTUM        
1 49056U 21069B   25303.84975431  .00000136  00000+0  00000+0 0  9994
2 49056   0.0170 339.0189 0002850 257.8347 156.1953  1.00271295 15629
EUTELSAT KONNECT VHTS   
1 53765U 22110A   25303.68468013  .00000027  00000+0  00000+0 0  9998
2 53765   0.0542  91.2703 0003180 101.6093  95.5743  1.00270288  4525
EUTELSAT HOTBIRD 13F    
1 54048U 22134A   25303.82794654  .00000097  00000+0  00000+0 0  9995
2 54048   0.0547 284.5011 0002138  79.2003 346.7729  1.00269870 11075
EUTELSAT HOTBIRD 13G    
1 54225U 22146A   25303.68667347  .00000097  00000+0  00000+0 0  9997
2 54225   0.0461 238.9897 0001876 296.7406 123.7218  1.00270419  5163
EUTELSAT 10B            
1 54259U 22157A   25303.82822432  .00000079  00000+0  00000+0 0  9990
2 54259   0.0543  88.9699 0001683  46.6904 211.9507  1.00273844 10729
EUTELSAT 36D            
1 59346U 24059A   25303.83391932  .00000166  00000+0  00000+0 0  9999
2 59346   0.0180 232.1435 0000158  92.7152  50.6359  1.00271213  5840
