<?xml version="1.0" encoding="UTF-8"?>
<ndm xmlns:xsi="http://www.w3.org/2001/XMLSchema-instance" xsi:noNamespaceSchemaLocation="https://sanaregistry.org/r/ndmxml_unqualified/ndmxml-2.0.0-master-2.0.xsd">
<omm id="CCSDS_OMM_VERS" version="2.0">
<header><CREATION_DATE/><ORIGINATOR/></header><body><segment><metadata><OBJECT_NAME>EUTELSAT QUANTUM</OBJECT_NAME><OBJECT_ID>2021-069B</OBJECT_ID><CENTER_NAME>EARTH</CENTER_NAME><REF_FRAME>TEME</REF_FRAME><TIME_SYSTEM>UTC</TIME_SYSTEM><MEAN_ELEMENT_THEORY>SGP4</MEAN_ELEMENT_THEORY></metadata><data><meanElements><EPOCH>2025-10-30T20:23:38.772384</EPOCH><MEAN_MOTION>1.00271295</MEAN_MOTION><ECCENTRICITY>.00028501</ECCENTRICITY><INCLINATION>0.0170</INCLINATION><RA_OF_ASC_NODE>339.0189</RA_OF_ASC_NODE><ARG_OF_PERICENTER>257.8347</ARG_OF_PERICENTER><MEAN_ANOMALY>156.1953</MEAN_ANOMALY></meanElements><tleParameters><EPHEMERIS_TYPE>0</EPHEMERIS_TYPE><CLASSIFICATION_TYPE>U</CLASSIFICATION_TYPE><NORAD_CAT_ID>49056</NORAD_CAT_ID><ELEMENT_SET_NO>999</ELEMENT_SET_NO><REV_AT_EPOCH>1562</REV_AT_EPOCH><BSTAR>0</BSTAR><MEAN_MOTION_DOT>.136E-5</MEAN_MOTION_DOT><MEAN_MOTION_DDOT>0</MEAN_MOTION_DDOT></tleParameters></data></segment></body></omm>
<omm id="CCSDS_OMM_VERS" version="2.0">
<header><CREATION_DATE/><ORIGINATOR/></header><body><segment><metadata><OBJECT_NAME>EUTELSAT KONNECT VHTS</OBJECT_NAME><OBJECT_ID>2022-110A</OBJECT_ID><CENTER_NAME>EARTH</CENTER_NAME><REF_FRAME>TEME</REF_FRAME><TIME_SYSTEM>UTC</TIME_SYSTEM><MEAN_ELEMENT_THEORY>SGP4</MEAN_ELEMENT_THEORY></metadata><data><meanElements><EPOCH>2025-10-30T16:25:56.363232</EPOCH><MEAN_MOTION>1.00270288</MEAN_MOTION><ECCENTRICITY>.00031803</ECCENTRICITY><INCLINATION>0.0542</INCLINATION><RA_OF_ASC_NODE>91.2703</RA_OF_ASC_NODE><ARG_OF_PERICENTER>101.6093</ARG_OF_PERICENTER><MEAN_ANOMALY>95.5743</MEAN_ANOMALY></meanElements><tleParameters><EPHEMERIS_TYPE>0</EPHEMERIS_TYPE><CLASSIFICATION_TYPE>U</CLASSIFICATION_TYPE><NORAD_CAT_ID>53765</NORAD_CAT_ID><ELEMENT_SET_NO>999</ELEMENT_SET_NO><REV_AT_EPOCH>452</REV_AT_EPOCH><BSTAR>0</BSTAR><MEAN_MOTION_DOT>.27E-6</MEAN_MOTION_DOT><MEAN_MOTION_DDOT>0</MEAN_MOTION_DDOT></tleParameters></data></segment></body></omm>
<omm id="CCSDS_OMM_VERS" version="2.0">
<header><CREATION_DATE/><ORIGINATOR/></header><body><segment><metadata><OBJECT_NAME>EUTELSAT HOTBIRD 13F</OBJECT_NAME><OBJECT_ID>2022-134A</OBJECT_ID><CENTER_NAME>EARTH</CENTER_NAME><REF_FRAME>TEME</REF_FRAME><TIME_SYSTEM>UTC</TIME_SYSTEM><MEAN_ELEMENT_THEORY>SGP4</MEAN_ELEMENT_THEORY></metadata><data><meanElements><EPOCH>2025-10-30T19:52:14.581056</EPOCH><MEAN_MOTION>1.00269870</MEAN_MOTION><ECCENTRICITY>.00021382</ECCENTRICITY><INCLINATION>0.0547</INCLINATION><RA_OF_ASC_NODE>284.5011</RA_OF_ASC_NODE><ARG_OF_PERICENTER>79.2003</ARG_OF_PERICENTER><MEAN_ANOMALY>346.7729</MEAN_ANOMALY></meanElements><tleParameters><EPHEMERIS_TYPE>0</EPHEMERIS_TYPE><CLASSIFICATION_TYPE>U</CLASSIFICATION_TYPE><NORAD_CAT_ID>54048</NORAD_CAT_ID><ELEMENT_SET_NO>999</ELEMENT_SET_NO><REV_AT_EPOCH>1107</REV_AT_EPOCH><BSTAR>0</BSTAR><MEAN_MOTION_DOT>.97E-6</MEAN_MOTION_DOT><MEAN_MOTION_DDOT>0</MEAN_MOTION_DDOT></tleParameters></data></segment></body></omm>
<omm id="CCSDS_OMM_VERS" version="2.0">
<header><CREATION_DATE/><ORIGINATOR/></header><body><segment><metadata><OBJECT_NAME>EUTELSAT HOTBIRD 13G</OBJECT_NAME><OBJECT_ID>2022-146A</OBJECT_ID><CENTER_NAME>EARTH</CENTER_NAME><REF_FRAME>TEME</REF_FRAME><TIME_SYSTEM>UTC</TIME_SYSTEM><MEAN_ELEMENT_THEORY>SGP4</MEAN_ELEMENT_THEORY></metadata><data><meanElements><EPOCH>2025-10-30T16:28:48.587808</EPOCH><MEAN_MOTION>1.00270419</MEAN_MOTION><ECCENTRICITY>.00018766</ECCENTRICITY><INCLINATION>0.0461</INCLINATION><RA_OF_ASC_NODE>238.9897</RA_OF_ASC_NODE><ARG_OF_PERICENTER>296.7406</ARG_OF_PERICENTER><MEAN_ANOMALY>123.7218</MEAN_ANOMALY></meanElements><tleParameters><EPHEMERIS_TYPE>0</EPHEMERIS_TYPE><CLASSIFICATION_TYPE>U</CLASSIFICATION_TYPE><NORAD_CAT_ID>54225</NORAD_CAT_ID><ELEMENT_SET_NO>999</ELEMENT_SET_NO><REV_AT_EPOCH>516</REV_AT_EPOCH><BSTAR>0</BSTAR><MEAN_MOTION_DOT>.97E-6</MEAN_MOTION_DOT><MEAN_MOTION_DDOT>0</MEAN_MOTION_DDOT></tleParameters></data></segment></body></omm>
<omm id="CCSDS_OMM_VERS" version="2.0">
<header><CREATION_DATE/><ORIGINATOR/></header><body><segment><metadata><OBJECT_NAME>EUTELSAT 10B</OBJECT_NAME><OBJECT_ID>2022-157A</OBJECT_ID><CENTER_NAME>EARTH</CENTER_NAME><REF_FRAME>TEME</REF_FRAME><TIME_SYSTEM>UTC</TIME_SYSTEM><MEAN_ELEMENT_THEORY>SGP4</MEAN_ELEMENT_THEORY></metadata><data><meanElements><EPOCH>2025-10-30T19:52:38.581248</EPOCH><MEAN_MOTION>1.00273844</MEAN_MOTION><ECCENTRICITY>.00016833</ECCENTRICITY><INCLINATION>0.0543</INCLINATION><RA_OF_ASC_NODE>88.9699</RA_OF_ASC_NODE><ARG_OF_PERICENTER>46.6904</ARG_OF_PERICENTER><MEAN_ANOMALY>211.9507</MEAN_ANOMALY></meanElements><tleParameters><EPHEMERIS_TYPE>0</EPHEMERIS_TYPE><CLASSIFICATION_TYPE>U</CLASSIFICATION_TYPE><NORAD_CAT_ID>54259</NORAD_CAT_ID><ELEMENT_SET_NO>999</ELEMENT_SET_NO><REV_AT_EPOCH>1072</REV_AT_EPOCH><BSTAR>0</BSTAR><MEAN_MOTION_DOT>.79E-6</MEAN_MOTION_DOT><MEAN_MOTION_DDOT>0</MEAN_MOTION_DDOT></tleParameters></data></segment></body></omm>
<omm id="CCSDS_OMM_VERS" version="2.0">
<header><CREATION_DATE/><ORIGINATOR/></header><body><segment><metadata><OBJECT_NAME>EUTELSAT 36D</OBJECT_NAME><OBJECT_ID>2024-059A</OBJECT_ID><CENTER_NAME>EARTH</CENTER_NAME><REF_FRAME>TEME</REF_FRAME><TIME_SYSTEM>UTC</TIME_SYSTEM><MEAN_ELEMENT_THEORY>SGP4</MEAN_ELEMENT_THEORY></metadata><data><meanElements><EPOCH>2025-10-30T20:00:50.629248</EPOCH><MEAN_MOTION>1.00271213</MEAN_MOTION><ECCENTRICITY>.00001589</ECCENTRICITY><INCLINATION>0.0180</INCLINATION><RA_OF_ASC_NODE>232.1435</RA_OF_ASC_NODE><ARG_OF_PERICENTER>92.7152</ARG_OF_PERICENTER><MEAN_ANOMALY>50.6359</MEAN_ANOMALY></meanElements><tleParameters><EPHEMERIS_TYPE>0</EPHEMERIS_TYPE><CLASSIFICATION_TYPE>U</CLASSIFICATION_TYPE><NORAD_CAT_ID>59346</NORAD_CAT_ID><ELEMENT_SET_NO>999</ELEMENT_SET_NO><REV_AT_EPOCH>584</REV_AT_EPOCH><BSTAR>0</BSTAR><MEAN_MOTION_DOT>.166E-5</MEAN_MOTION_DOT><MEAN_MOTION_DDOT>0</MEAN_MOTION_DDOT></tleParameters></data></segment></body></omm>
</ndm>
